start=new Date('2023-03-03T00:00:00.000Z').valueOf();
sats=[{"CENTER_NAME":"EARTH","ARG_OF_PERICENTER":"96.3416","CLASSIFICATION_TYPE":"U","MEAN_MOTION_DDOT":"0.0000000000000","ECCENTRICITY":"0.00009830","REV_AT_EPOCH":"4448","OBJECT_NAME":"STARLINK-3984","RCS_SIZE":"LARGE","INCLINATION":"53.2148","TIME_SYSTEM":"UTC","LAUNCH_DATE":"2022-05-14","TLE_LINE2":"2 52621  53.2148 180.3153 0000983  96.3416 263.7688 15.08849675 44484","PERIAPSIS":"539.036","FILE":"3849487","NORAD_CAT_ID":"52621","MEAN_ELEMENT_THEORY":"SGP4","ELEMENT_SET_NO":"999","MEAN_MOTION":"15.08849675","DECAY_DATE":null,"GP_ID":"227362049","OBJECT_ID":"2022-052Z","MEAN_ANOMALY":"263.7688","EPOCH":"2023-03-02T18:29:37.256640","RA_OF_ASC_NODE":"180.3153","COUNTRY_CODE":"US","SEMIMAJOR_AXIS":"6917.851","APOAPSIS":"540.396","EPHEMERIS_TYPE":"0","MEAN_MOTION_DOT":"0.00005213","REF_FRAME":"TEME","BSTAR":"0.00034525000000","PERIOD":"95.437","TLE_LINE1":"1 52621U 22052Z   23061.77057010  .00005213  00000-0  34525-3 0  9999","SITE":"AFETR","OBJECT_TYPE":"PAYLOAD"},{"EPHEMERIS_TYPE":"0","REF_FRAME":"TEME","MEAN_MOTION_DOT":"0.00031076","BSTAR":"0.00196080000000","PERIOD":"95.436","SITE":"AFETR","TLE_LINE1":"1 52622U 22052AA  23061.67167375  .00031076  00000-0  19608-2 0  9995","OBJECT_TYPE":"PAYLOAD","OBJECT_ID":"2022-052AA","MEAN_ANOMALY":"287.3413","MEAN_MOTION":"15.08863028","GP_ID":"227362307","DECAY_DATE":null,"SEMIMAJOR_AXIS":"6917.810","COUNTRY_CODE":"US","APOAPSIS":"540.522","EPOCH":"2023-03-02T16:07:12.612000","RA_OF_ASC_NODE":"195.7619","FILE":"3849487","MEAN_ELEMENT_THEORY":"SGP4","NORAD_CAT_ID":"52622","ELEMENT_SET_NO":"999","CENTER_NAME":"EARTH","ARG_OF_PERICENTER":"72.7713","CLASSIFICATION_TYPE":"U","REV_AT_EPOCH":"4426","RCS_SIZE":"LARGE","OBJECT_NAME":"STARLINK-4008","INCLINATION":"53.2146","TIME_SYSTEM":"UTC","MEAN_MOTION_DDOT":"0.0000000000000","ECCENTRICITY":"0.00012250","PERIAPSIS":"538.828","TLE_LINE2":"2 52622  53.2146 195.7619 0001225  72.7713 287.3413 15.08863028 44260","LAUNCH_DATE":"2022-05-14"},{"RCS_SIZE":"LARGE","INCLINATION":"53.2143","TIME_SYSTEM":"UTC","OBJECT_NAME":"STARLINK-3986","REV_AT_EPOCH":"4448","ECCENTRICITY":"0.00011730","MEAN_MOTION_DDOT":"0.0000000000000","PERIAPSIS":"538.807","TLE_LINE2":"2 52623  53.2143 180.3338 0001173  96.1416 263.9710 15.08881370 44482","LAUNCH_DATE":"2022-05-14","CLASSIFICATION_TYPE":"U","CENTER_NAME":"EARTH","ARG_OF_PERICENTER":"96.1416","MEAN_ELEMENT_THEORY":"SGP4","NORAD_CAT_ID":"52623","ELEMENT_SET_NO":"999","FILE":"3849487","MEAN_ANOMALY":"263.9710","OBJECT_ID":"2022-052AB","DECAY_DATE":null,"GP_ID":"227363050","MEAN_MOTION":"15.08881370","APOAPSIS":"540.430","COUNTRY_CODE":"US","SEMIMAJOR_AXIS":"6917.754","RA_OF_ASC_NODE":"180.3338","EPOCH":"2023-03-02T18:24:19.763424","TLE_LINE1":"1 52623U 22052AB  23061.76689541  .00030714  00000-0  19373-2 0  9997","SITE":"AFETR","PERIOD":"95.435","BSTAR":"0.00193730000000","OBJECT_TYPE":"PAYLOAD","EPHEMERIS_TYPE":"0","REF_FRAME":"TEME","MEAN_MOTION_DOT":"0.00030714"},{"MEAN_MOTION_DOT":"0.00024009","REF_FRAME":"TEME","EPHEMERIS_TYPE":"0","OBJECT_TYPE":"PAYLOAD","SITE":"AFETR","TLE_LINE1":"1 52624U 22052AC  23061.57922295  .00024009  00000-0  15208-2 0  9996","PERIOD":"95.437","BSTAR":"0.00152080000000","RA_OF_ASC_NODE":"181.1819","EPOCH":"2023-03-02T13:54:04.862880","APOAPSIS":"540.616","SEMIMAJOR_AXIS":"6917.833","COUNTRY_CODE":"US","DECAY_DATE":null,"GP_ID":"227361306","MEAN_MOTION":"15.08855617","MEAN_ANOMALY":"271.7224","OBJECT_ID":"2022-052AC","FILE":"3849487","ELEMENT_SET_NO":"999","NORAD_CAT_ID":"52624","MEAN_ELEMENT_THEORY":"SGP4","CLASSIFICATION_TYPE":"U","CENTER_NAME":"EARTH","ARG_OF_PERICENTER":"88.3920","LAUNCH_DATE":"2022-05-14","TLE_LINE2":"2 52624  53.2152 181.1819 0001328  88.3920 271.7224 15.08855617 44450","PERIAPSIS":"538.779","ECCENTRICITY":"0.00013280","MEAN_MOTION_DDOT":"0.0000000000000","RCS_SIZE":"LARGE","INCLINATION":"53.2152","TIME_SYSTEM":"UTC","OBJECT_NAME":"STARLINK-4009","REV_AT_EPOCH":"4445"},{"EPHEMERIS_TYPE":"0","MEAN_MOTION_DOT":"0.00035628","REF_FRAME":"TEME","TLE_LINE1":"1 52625U 22052AD  23061.76321544  .00035628  00000-0  22430-2 0  9992","SITE":"AFETR","BSTAR":"0.00224300000000","PERIOD":"95.435","OBJECT_TYPE":"PAYLOAD","GP_ID":"227361556","DECAY_DATE":null,"MEAN_MOTION":"15.08879100","MEAN_ANOMALY":"287.3164","OBJECT_ID":"2022-052AD","RA_OF_ASC_NODE":"180.3482","EPOCH":"2023-03-02T18:19:01.814016","APOAPSIS":"540.611","COUNTRY_CODE":"US","SEMIMAJOR_AXIS":"6917.761","FILE":"3849487","NORAD_CAT_ID":"52625","MEAN_ELEMENT_THEORY":"SGP4","ELEMENT_SET_NO":"999","CLASSIFICATION_TYPE":"U","ARG_OF_PERICENTER":"72.7984","CENTER_NAME":"EARTH","ECCENTRICITY":"0.00014240","MEAN_MOTION_DDOT":"0.0000000000000","INCLINATION":"53.2157","RCS_SIZE":"LARGE","TIME_SYSTEM":"UTC","OBJECT_NAME":"STARLINK-3988","REV_AT_EPOCH":"4448","LAUNCH_DATE":"2022-05-14","TLE_LINE2":"2 52625  53.2157 180.3482 0001424  72.7984 287.3164 15.08879100 44489","PERIAPSIS":"538.641"},{"MEAN_ANOMALY":"282.3171","OBJECT_ID":"2022-052AE","GP_ID":"227362801","DECAY_DATE":null,"MEAN_MOTION":"15.08853814","APOAPSIS":"540.560","SEMIMAJOR_AXIS":"6917.838","COUNTRY_CODE":"US","RA_OF_ASC_NODE":"180.5980","EPOCH":"2023-03-02T16:59:32.693856","SITE":"AFETR","TLE_LINE1":"1 52626U 22052AE  23061.70801729  .00008513  00000-0  55209-3 0  9999","BSTAR":"0.00055209000000","PERIOD":"95.437","OBJECT_TYPE":"PAYLOAD","EPHEMERIS_TYPE":"0","REF_FRAME":"TEME","MEAN_MOTION_DOT":"0.00008513","RCS_SIZE":"LARGE","INCLINATION":"53.2134","OBJECT_NAME":"STARLINK-3990","TIME_SYSTEM":"UTC","REV_AT_EPOCH":"4447","ECCENTRICITY":"0.00012380","MEAN_MOTION_DDOT":"0.0000000000000","PERIAPSIS":"538.847","TLE_LINE2":"2 52626  53.2134 180.5980 0001238  77.7960 282.3171 15.08853814 44478","LAUNCH_DATE":"2022-05-14","CLASSIFICATION_TYPE":"U","CENTER_NAME":"EARTH","ARG_OF_PERICENTER":"77.7960","MEAN_ELEMENT_THEORY":"SGP4","NORAD_CAT_ID":"52626","ELEMENT_SET_NO":"999","FILE":"3849487"},{"OBJECT_TYPE":"PAYLOAD","TLE_LINE1":"1 52627U 22052AF  23061.75217405  .00008506  00000-0  55161-3 0  9996","SITE":"AFETR","BSTAR":"0.00055161000000","PERIOD":"95.436","REF_FRAME":"TEME","MEAN_MOTION_DOT":"0.00008506","EPHEMERIS_TYPE":"0","APOAPSIS":"540.533","SEMIMAJOR_AXIS":"6917.827","COUNTRY_CODE":"US","RA_OF_ASC_NODE":"180.3984","EPOCH":"2023-03-02T18:03:07.837920","MEAN_ANOMALY":"285.4087","OBJECT_ID":"2022-052AF","GP_ID":"227362558","DECAY_DATE":null,"MEAN_MOTION":"15.08857592","ELEMENT_SET_NO":"999","MEAN_ELEMENT_THEORY":"SGP4","NORAD_CAT_ID":"52627","FILE":"3849487","PERIAPSIS":"538.850","TLE_LINE2":"2 52627  53.2158 180.3984 0001216  74.7039 285.4087 15.08857592 44496","LAUNCH_DATE":"2022-05-14","TIME_SYSTEM":"UTC","RCS_SIZE":"LARGE","INCLINATION":"53.2158","OBJECT_NAME":"STARLINK-3992","REV_AT_EPOCH":"4449","ECCENTRICITY":"0.00012160","MEAN_MOTION_DDOT":"0.0000000000000","CLASSIFICATION_TYPE":"U","ARG_OF_PERICENTER":"74.7039","CENTER_NAME":"EARTH"},{"OBJECT_TYPE":"PAYLOAD","PERIOD":"95.437","BSTAR":"0.00171970000000","SITE":"AFETR","TLE_LINE1":"1 52628U 22052AG  23061.60175842  .00027193  00000-0  17197-2 0  9998","MEAN_MOTION_DOT":"0.00027193","REF_FRAME":"TEME","EPHEMERIS_TYPE":"0","EPOCH":"2023-03-02T14:26:31.927488","RA_OF_ASC_NODE":"196.0762","COUNTRY_CODE":"US","SEMIMAJOR_AXIS":"6917.854","APOAPSIS":"540.675","MEAN_MOTION":"15.08848527","GP_ID":"227361800","DECAY_DATE":null,"OBJECT_ID":"2022-052AG","MEAN_ANOMALY":"275.7120","ELEMENT_SET_NO":"999","NORAD_CAT_ID":"52628","MEAN_ELEMENT_THEORY":"SGP4","FILE":"3849487","LAUNCH_DATE":"2022-05-14","TLE_LINE2":"2 52628  53.2140 196.0762 0001381  84.4029 275.7120 15.08848527 44258","PERIAPSIS":"538.764","MEAN_MOTION_DDOT":"0.0000000000000","ECCENTRICITY":"0.00013810","REV_AT_EPOCH":"4425","RCS_SIZE":"LARGE","OBJECT_NAME":"STARLINK-4001","INCLINATION":"53.2140","TIME_SYSTEM":"UTC","ARG_OF_PERICENTER":"84.4029","CENTER_NAME":"EARTH","CLASSIFICATION_TYPE":"U"},{"SITE":"AFETR","TLE_LINE1":"1 52629U 22052AH  23061.61697547  .00023912  00000-0  15141-2 0  9993","PERIOD":"95.436","BSTAR":"0.00151410000000","OBJECT_TYPE":"PAYLOAD","EPHEMERIS_TYPE":"0","MEAN_MOTION_DOT":"0.00023912","REF_FRAME":"TEME","GP_ID":"227362050","DECAY_DATE":null,"MEAN_MOTION":"15.08871518","MEAN_ANOMALY":"257.2549","OBJECT_ID":"2022-052AH","RA_OF_ASC_NODE":"181.0115","EPOCH":"2023-03-02T14:48:26.680608","APOAPSIS":"540.628","COUNTRY_CODE":"US","SEMIMAJOR_AXIS":"6917.784","NORAD_CAT_ID":"52629","MEAN_ELEMENT_THEORY":"SGP4","ELEMENT_SET_NO":"999","FILE":"3849487","ECCENTRICITY":"0.00014150","MEAN_MOTION_DDOT":"0.0000000000000","INCLINATION":"53.2159","RCS_SIZE":"LARGE","OBJECT_NAME":"STARLINK-4022","TIME_SYSTEM":"UTC","REV_AT_EPOCH":"4446","TLE_LINE2":"2 52629  53.2159 181.0115 0001415 102.8601 257.2549 15.08871518 44463","LAUNCH_DATE":"2022-05-14","PERIAPSIS":"538.670","CLASSIFICATION_TYPE":"U","CENTER_NAME":"EARTH","ARG_OF_PERICENTER":"102.8601"},{"FILE":"3849487","NORAD_CAT_ID":"52630","MEAN_ELEMENT_THEORY":"SGP4","ELEMENT_SET_NO":"999","CLASSIFICATION_TYPE":"U","CENTER_NAME":"EARTH","ARG_OF_PERICENTER":"86.4270","ECCENTRICITY":"0.00011480","MEAN_MOTION_DDOT":"0.0000000000000","TIME_SYSTEM":"UTC","RCS_SIZE":"LARGE","INCLINATION":"53.2142","OBJECT_NAME":"STARLINK-3989","REV_AT_EPOCH":"4445","LAUNCH_DATE":"2022-05-14","TLE_LINE2":"2 52630  53.2142 181.2588 0001148  86.4270 273.6854 15.08864682 44459","PERIAPSIS":"538.876","EPHEMERIS_TYPE":"0","MEAN_MOTION_DOT":"0.00023380","REF_FRAME":"TEME","TLE_LINE1":"1 52630U 22052AJ  23061.56081837  .00023380  00000-0  14812-2 0  9991","SITE":"AFETR","PERIOD":"95.436","BSTAR":"0.00148120000000","OBJECT_TYPE":"PAYLOAD","DECAY_DATE":null,"GP_ID":"227362308","MEAN_MOTION":"15.08864682","MEAN_ANOMALY":"273.6854","OBJECT_ID":"2022-052AJ","RA_OF_ASC_NODE":"181.2588","EPOCH":"2023-03-02T13:27:34.707168","APOAPSIS":"540.464","COUNTRY_CODE":"US","SEMIMAJOR_AXIS":"6917.805"}];
